0 FREGAT DEB (TANK)
1 41108U 15074D   19012.20019400  .00009329  34040-5  27598-3 0  9993
2 41108  50.3666 305.2205 2119696 168.5752 197.2237 11.20743912124511
0 ARIANE 44LP DEB
1 41118U 91015Q   19011.90060852 +.00000072 +00000-0 +13735-2 0  9993
2 41118 004.1444 016.1923 6657475 005.1074 077.9304 02.83490256053279
0 COSMOS 2513
1 41121U 15075A   19011.92271556 -.00000130 +00000-0 +00000-0 0  9991
2 41121 000.0785 105.8721 0002843 185.1113 232.5548 01.00271420011392
0 COSMOS 2513
1 41121U 15075A   19012.18403844 -.00000129  00000-0  00000+0 0  9994
2 41121   0.0782 105.8142 0002819 184.7584 327.2993  1.00271394 11392
0 BREEZE-M R/B
1 41122U 15075B   19011.62929730 -.00000152 +00000-0 +00000-0 0  9997
2 41122 002.3738 086.0402 0314332 079.7413 283.4963 01.04640345011804
0 NOAA 16 DEB
1 41127U 00055BJ  19012.53581466  .00000967  00000-0  35099-3 0  9997
2 41127  98.8114 118.4938 0085421   2.0451 358.1066 14.33627858162470
0 NOAA 16 DEB
1 41128U 00055BK  19012.49708573  .00001085  00000-0  59452-3 0  9994
2 41128  99.0409 109.2733 0004364  21.0507 339.0844 14.14043518160308
0 NOAA 16 DEB
1 41129U 00055BL  19012.55724873  .00001694  00000-0  57591-3 0  9991
2 41129  98.8743 128.1066 0086373 348.3692  11.5496 14.35889719162622
0 NOAA 16 DEB
1 41131U 00055BN  19011.90997103 +.00000304 +00000-0 +23947-3 0  9995
2 41131 098.8923 066.6254 0066474 015.8449 344.4774 13.97995820158031
0 NOAA 16 DEB
1 41132U 00055BP  19011.46067960 +.00000556 +00000-0 +26088-3 0  9994
2 41132 098.8091 101.0355 0049492 046.7386 313.7906 14.23474812160782
0 NOAA 16 DEB
1 41133U 00055BQ  19012.76401210 -.00000952  00000-0 -47508-3 0  9991
2 41133  98.9553  99.4139 0008761 144.3054 215.8706 14.14260675159843
0 NOAA 16 DEB
1 41135U 00055BS  19011.02912346 +.00000803 +00000-0 +34439-3 0  9990
2 41135 098.8278 107.2598 0058640 032.9735 327.5080 14.26725728161920
0 NOAA 16 DEB
1 41135U 00055BS  19012.22132880  .00000789  00000-0  33847-3 0  9995
2 41135  98.8277 108.4623 0058554  29.4020 331.0433 14.26727666162097
0 NOAA 16 DEB
1 41136U 00055BT  19012.29350842  .00001636  00000-0  70939-3 0  9998
2 41136  99.0988 136.2539 0040852  67.0524 293.4957 14.25247557161742
0 NOAA 16 DEB
1 41136U 00055BT  19011.59148394 +.00001645 +00000-0 +71335-3 0  9998
2 41136 099.0990 135.5261 0040963 069.1498 291.4059 14.25245231161642
0 NOAA 16 DEB
1 41137U 00055BU  19011.12861042 +.00000642 +00000-0 +38147-3 0  9990
2 41137 098.8403 081.7171 0026648 007.7747 352.3832 14.10814525160018
0 NOAA 16 DEB
1 41138U 00055BV  19011.14772906 +.00001318 +00000-0 +71372-3 0  9991
2 41138 098.8493 088.3637 0006031 227.4101 132.6563 14.14238882159497
0 NOAA 16 DEB
1 41139U 00055BW  19011.39811028 +.00000644 +00000-0 +47580-3 0  9993
2 41139 098.9726 070.9130 0072084 014.1616 346.1546 13.97774308158654
0 NOAA 16 DEB
1 41139U 00055BW  19012.11391935  .00000592  00000-0  43949-3 0  9991
2 41139  98.9726  71.6126 0072044  12.0726 348.2144 13.97775008158758
0 NOAA 16 DEB
1 41141U 00055BY  19011.09517978 +.00000866 +00000-0 +36162-3 0  9990
2 41141 098.9559 123.5949 0068063 075.1294 285.7412 14.27578987161861
0 NOAA 16 DEB
1 41142U 00055BZ  19011.49143844 +.00000797 +00000-0 +34867-3 0  9995
2 41142 098.8265 105.7098 0063155 018.3917 341.9525 14.25575546162418
0 NOAA 16 DEB
1 41142U 00055BZ  19012.19330062  .00000780  00000-0  34131-3 0  9999
2 41142  98.8264 106.4163 0063118  16.2861 344.0327 14.25576577162512
0 NOAA 16 DEB
1 41143U 00055CA  19012.04376056  .00000587  00000-0  47606-3 0  9993
2 41143  98.8414  46.8169 0099741  56.2890 304.7730 13.91540864158316
0 NOAA 16 DEB
1 41143U 00055CA  19011.32474419 +.00000624 +00000-0 +50402-3 0  9995
2 41143 098.8415 046.1317 0099789 058.2780 302.8060 13.91539960158216
0 NOAA 16 DEB
1 41144U 00055CB  19011.00991023 +.00000487 +00000-0 +27832-3 0  9994
2 41144 098.7678 079.2855 0031532 026.4126 333.8646 14.13901196160782
0 NOAA 16 DEB
1 41144U 00055CB  19012.14216006  .00000471  00000-0  27005-3 0  9996
2 41144  98.7678  80.3961 0031469  23.0305 337.2271 14.13902343160949
0 NOAA 16 DEB
1 41148U 00055CF  19011.55791232 +.00002025 +00000-0 +63568-3 0  9994
2 41148 098.8738 133.6033 0088351 345.8420 014.0292 14.39489798163452
0 NOAA 16 DEB
1 41149U 00055CG  19011.05904955 +.00000875 +00000-0 +35421-3 0  9996
2 41149 098.8994 119.3110 0073665 059.1831 301.6572 14.28900856162510
0 NOAA 16 DEB
1 41149U 00055CG  19012.24944122  .00000870  00000-0  35233-3 0  9994
2 41149  98.8993 120.5256 0073552  55.6850 305.1263 14.28903064162689
0 NOAA 16 DEB
1 41153U 00055CL  19010.99752964 +.00000443 +00000-0 +24473-3 0  9990
2 41153 098.8488 093.2468 0020981 061.3812 298.9469 14.16348327160816
0 NOAA 16 DEB
1 41154U 00055CM  19011.92931568 +.00000522 +00000-0 +38173-3 0  9994
2 41154 098.9094 070.5295 0064257 356.3769 003.6922 13.99358842159039
0 NOAA 16 DEB
1 41154U 00055CM  19011.92931568  .00000522  00000-0  38173-3 0  9994
2 41154  98.9094  70.5295 0064257 356.3769   3.6922 13.99358842159039
0 NOAA 16 DEB
1 41155U 00055CN  19012.49694167  .00000422  00000-0  23903-3 0  9993
2 41155  98.8871  97.4716 0022188  56.6842 303.6452 14.15317210160910
0 NOAA 16 DEB
1 41157U 00055CQ  19012.46712953  .00000761  00000-0  47740-3 0  9997
2 41157  98.9643  87.9677 0034412 300.2788  59.4977 14.07317318159994
0 NOAA 16 DEB
1 41160U 00055CT  19011.02418398 +.00000819 +00000-0 +48610-3 0  9999
2 41160 098.8869 082.6941 0020417 006.7814 353.3629 14.10238375159989
0 NOAA 16 DEB
1 41160U 00055CT  19012.01747272  .00000744  00000-0  44406-3 0  9991
2 41160  98.8869  83.6755 0020405   3.5376 356.5935 14.10239704160128
0 NOAA 16 DEB
1 41161U 00055CU  19011.40863362 +.00000523 +00000-0 +32765-3 0  9993
2 41161 098.8579 080.9731 0043538 245.0953 114.5688 14.08444075159847
0 NOAA 16 DEB
1 41162U 00055CV  19011.40035754 +.00000584 +00000-0 +35693-3 0  9990
2 41162 098.8534 081.1405 0033826 010.3569 349.8291 14.09512498159923
0 NOAA 16 DEB
1 41163U 00055CW  19012.30337205  .00000669  00000-0  27451-3 0  9994
2 41163  99.0203 136.0149 0071241  21.1030 339.3065 14.29185261162294
0 NOAA 16 DEB
1 41165U 00055CY  19011.91947605 +.00000664 +00000-0 +40314-3 0  9991
2 41165 098.7566 069.0341 0026345 252.0902 107.7396 14.09537625160016
0 NOAA 16 DEB
1 41165U 00055CY  19011.91947605  .00000664  00000-0  40314-3 0  9991
2 41165  98.7566  69.0341 0026345 252.0902 107.7396 14.09537625160016
0 VELOX C1
1 41166U 15077A   19012.04387351  .00000948  00000-0  17321-4 0  9991
2 41166  14.9839 319.8078 0011339   7.8704 352.1794 15.09699429169802
0 VELOX C1
1 41166U 15077A   19011.11888230 +.00000966 +00000-0 +18372-4 0  9997
2 41166 014.9840 326.5451 0011341 355.0373 004.9834 15.09698971169669
0 KENT RIDGE 1
1 41167U 15077B   19011.95623529 +.00000936 +00000-0 +17197-4 0  9999
2 41167 014.9828 326.6363 0011632 355.5715 051.7805 15.08980344169730
0 KENT RIDGE 1
1 41167U 15077B   19012.09714426  .00001000  00000-0  21105-4 0  9999
2 41167  14.9788 325.5930 0011685 356.9235  97.8558 15.08980661169753
0 ATHENOXAT 1
1 41168U 15077C   19012.90917115  .00001787  00000-0  60024-4 0  9995
2 41168  14.9847 284.7819 0012238  73.2203 251.8770 15.13262865170183
0 ATHENOXAT 1
1 41168U 15077C   19012.01062182  .00001826  00000-0  62147-4 0  9994
2 41168  14.9848 291.3345 0012274  60.9233  36.6540 15.13261098170055
0 TELEOS 1
1 41169U 15077D   19012.10326389  .00001212  00000-0  32737-4 0  9998
2 41169  14.9754 317.5594 0010551   9.0554 167.8554 15.10092569169822
0 TELEOS 1
1 41169U 15077D   19012.15775209  .00001180  00000-0  30791-4 0  9994
2 41169  14.9760 317.1316 0010554   9.9528 103.9559 15.10092407169838
0 TELEOS 1
1 41169U 15077D   19011.95032325 +.00001264 +00000-0 +35794-4 0  9997
2 41169 014.9752 318.6784 0010539 007.1176 056.2414 15.10092836169809
0 GALASSIA
1 41170U 15077E   19011.36228842 +.00001648 +00000-0 +51741-4 0  9991
2 41170 014.9890 289.8360 0012956 075.4495 284.7263 15.13604165170012
0 GALASSIA
1 41170U 15077E   19012.02128279  .00001599  00000-0  49124-4 0  9995
2 41170  14.9889 285.0071 0012943  84.6730 275.5067 15.13605221170112
0 VELOX 2
1 41171U 15077F   19012.13445378  .00001312  00000-0  37573-4 0  9998
2 41171  14.9920 312.0569 0008858  13.2812 346.7741 15.10971932169885
0 VELOX 2
1 41171U 15077F   19011.07821519 +.00001352 +00000-0 +39901-4 0  9996
2 41171 014.9921 319.7652 0008870 358.7086 001.3211 15.10970685169720
0 DAMPE
1 41173U 15078A   19011.91741786 +.00000074 +00000-0 +59640-5 0  9992
2 41173 097.2982 014.0227 0012198 297.6963 120.7302 15.23754426170826
0 DAMPE
1 41173U 15078A   19012.71067218  .00000010  00000-0  33157-5 0  9997
2 41173  97.2983  14.7943 0012164 294.7330 152.3044 15.23754166170946
0 DAMPE
1 41173U 15078A   19012.46026049  .00000092  00000-0  67036-5 0  9999
2 41173  97.2983  14.5509 0012200 295.8095 218.4768 15.23754765170901
0 DAMPE
1 41173U 15078A   19012.05353859  .00000092  00000-0  67172-5 0  9997
2 41173  97.2981  14.1551 0012208 297.1542 147.4860 15.23754625170844
0 GALILEO 12 (269)
1 41174U 15079A   19010.91567270 +.00000068 +00000-0 +00000-0 0  9991
2 41174 054.9349 175.8994 0003094 323.4984 036.4507 01.70473716018678
0 FREGAT R/B
1 41176U 15079C   19012.19924282  .00000077  00000-0  00000+0 0  9994
2 41176  54.9271 177.0289 0009339 205.4212 154.5081  1.67560989 18771
0 ORBCOMM FM 114
1 41179U 15081A   19011.87531292 -.00000217 +00000-0 -11890-4 0  9991
2 41179 047.0037 171.1665 0002140 057.6645 302.4446 14.54755369162429
0 ORBCOMM FM 114
1 41179U 15081A   19012.76815680 -.00000211  00000-0 -10497-4 0  9992
2 41179  47.0037 166.9727 0002097  62.7161 297.3937 14.54755361162554
